[{"norad_id":"59249","company":"STARLINK","tle_line2":"2 59249  43.0104  30.8143 0002655 265.1780  94.8768 15.27548246 95953","launch_date":"2024-03-16","type":"LEO","tle_line1":"1 59249U 24049U   25326.19392016  .00000281  00000+0  19793-4 0  9990","satellite_name":"STARLINK-31426"},{"norad_id":"59250","company":"STARLINK","tle_line2":"2 59250  42.9993  19.4664 0000978 120.5814 239.5134 15.27579227 96081","launch_date":"2024-03-16","type":"LEO","tle_line1":"1 59250U 24049V   25326.17978097 -.00000563  00000+0 -10950-4 0  9990","satellite_name":"STARLINK-31407"},{"norad_id":"59252","company":"STARLINK","tle_line2":"2 59252  43.0037  10.8983 0001052 200.1086 159.9724 15.27563486 96274","launch_date":"2024-03-16","type":"LEO","tle_line1":"1 59252U 24049X   25327.10595737 -.00000389  00000+0 -46195-5 0  9999","satellite_name":"STARLINK-31393"},{"norad_id":"59253","company":"STARLINK","tle_line2":"2 59253  43.0041  30.2241 0002023 281.4793  78.5832 15.27571965 95961","launch_date":"2024-03-16","type":"LEO","tle_line1":"1 59253U 24049Y   25326.22972826 -.00000242  00000+0  75224-6 0  9993","satellite_name":"STARLINK-31425"},{"norad_id":"59254","company":"STARLINK","tle_line2":"2 59254  53.1604 313.8036 0001631 103.7947 256.3235 15.30194622 95410","launch_date":"2024-03-19","type":"LEO","tle_line1":"1 59254U 24050A   25327.12474687  .00000992  00000+0  45640-4 0  9996","satellite_name":"STARLINK-31659"},{"norad_id":"59255","company":"STARLINK","tle_line2":"2 59255  53.1619 315.9829 0001803 114.3193 245.7996 15.30200142 94232","launch_date":"2024-03-19","type":"LEO","tle_line1":"1 59255U 24050B   25327.13266457 -.00001208  00000+0 -28654-4 0  9991","satellite_name":"STARLINK-31629"},{"norad_id":"59256","company":"STARLINK","tle_line2":"2 59256  53.1604 315.8999 0001278  94.3632 265.7515 15.30193027 94237","launch_date":"2024-03-19","type":"LEO","tle_line1":"1 59256U 24050C   25327.11999902  .00000799  00000+0  39120-4 0  9990","satellite_name":"STARLINK-31652"},{"norad_id":"59257","company":"STARLINK","tle_line2":"2 59257  53.1545 276.1870 0009761 119.6250 116.3656 15.41620325  5913","launch_date":"2024-03-19","type":"LEO","tle_line1":"1 59257U 24050D   25327.16670139  .00161142  00000+0  36963-2 0  9994","satellite_name":"STARLINK-31655"},{"norad_id":"59258","company":"STARLINK","tle_line2":"2 59258  53.1619 315.8614 0001277 102.9029 257.2115 15.30195081 94238","launch_date":"2024-03-19","type":"LEO","tle_line1":"1 59258U 24050E   25327.11366852 -.00000826  00000+0 -15766-4 0  9997","satellite_name":"STARLINK-31637"},{"norad_id":"59259","company":"STARLINK","tle_line2":"2 59259  53.1607 315.9608 0001467 113.7639 246.3516 15.30193846 94239","launch_date":"2024-03-19","type":"LEO","tle_line1":"1 59259U 24050F   25327.12949515  .00001698  00000+0  69475-4 0  9994","satellite_name":"STARLINK-31506"},{"norad_id":"59261","company":"STARLINK","tle_line2":"2 59261  53.1615 315.8795 0001388 113.5919 246.5228 15.30193667 94231","launch_date":"2024-03-19","type":"LEO","tle_line1":"1 59261U 24050H   25327.11683329 -.00000516  00000+0 -52990-5 0  9999","satellite_name":"STARLINK-31639"},{"norad_id":"59263","company":"STARLINK","tle_line2":"2 59263  53.1622 320.4123 0001172  83.1511 276.9623 15.30180661 94099","launch_date":"2024-03-19","type":"LEO","tle_line1":"1 59263U 24050K   25326.25097158  .00002141  00000+0  84446-4 0  9998","satellite_name":"STARLINK-31598"},{"norad_id":"59264","company":"STARLINK","tle_line2":"2 59264  53.1597 320.2739 0001571  83.2086 276.9094 15.30197163 94090","launch_date":"2024-03-19","type":"LEO","tle_line1":"1 59264U 24050L   25326.22563885  .00020665  00000+0  70797-3 0  9995","satellite_name":"STARLINK-31645"},{"norad_id":"59265","company":"STARLINK","tle_line2":"2 59265  53.1607 319.7034 0001161 113.7555 246.3567 15.30187450 94116","launch_date":"2024-03-19","type":"LEO","tle_line1":"1 59265U 24050M   25326.36260707 -.00000981  00000+0 -21021-4 0  9996","satellite_name":"STARLINK-31646"},{"norad_id":"59266","company":"STARLINK","tle_line2":"2 59266  53.1600 315.9186 0001519 107.3603 252.7564 15.30191637 94239","launch_date":"2024-03-19","type":"LEO","tle_line1":"1 59266U 24050N   25327.12316553  .00002156  00000+0  84930-4 0  9995","satellite_name":"STARLINK-31648"},{"norad_id":"59267","company":"STARLINK","tle_line2":"2 59267  53.1610 320.2533 0001674  77.1759 282.9429 15.30195942 94096","launch_date":"2024-03-19","type":"LEO","tle_line1":"1 59267U 24050P   25326.22247742  .00000803  00000+0  39235-4 0  9994","satellite_name":"STARLINK-31579"}]