[{"OBJECT_NAME":"STARLINK-31426","OBJECT_ID":"2024-049U","EPOCH":"2025-11-22T04:39:14.701824","MEAN_MOTION":15.27548246,"ECCENTRICITY":0.00026556,"INCLINATION":43.0104,"RA_OF_ASC_NODE":30.8143,"ARG_OF_PERICENTER":265.178,"MEAN_ANOMALY":94.8768,"EPHEMERIS_TYPE":0,"CLASSIFICATION_TYPE":"U","NORAD_CAT_ID":59249,"ELEMENT_SET_NO":999,"REV_AT_EPOCH":9595,"BSTAR":1.9792892e-5,"MEAN_MOTION_DOT":2.81e-6,"MEAN_MOTION_DDOT":0},{"OBJECT_NAME":"STARLINK-31407","OBJECT_ID":"2024-049V","EPOCH":"2025-11-22T04:18:53.075808","MEAN_MOTION":15.27579227,"ECCENTRICITY":9.781e-5,"INCLINATION":42.9993,"RA_OF_ASC_NODE":19.4664,"ARG_OF_PERICENTER":120.5814,"MEAN_ANOMALY":239.5134,"EPHEMERIS_TYPE":0,"CLASSIFICATION_TYPE":"U","NORAD_CAT_ID":59250,"ELEMENT_SET_NO":999,"REV_AT_EPOCH":9608,"BSTAR":-1.0950494e-5,"MEAN_MOTION_DOT":-5.63e-6,"MEAN_MOTION_DDOT":0},{"OBJECT_NAME":"STARLINK-31393","OBJECT_ID":"2024-049X","EPOCH":"2025-11-23T02:32:34.716768","MEAN_MOTION":15.27563486,"ECCENTRICITY":0.0001052,"INCLINATION":43.0037,"RA_OF_ASC_NODE":10.8983,"ARG_OF_PERICENTER":200.1086,"MEAN_ANOMALY":159.9724,"EPHEMERIS_TYPE":0,"CLASSIFICATION_TYPE":"U","NORAD_CAT_ID":59252,"ELEMENT_SET_NO":999,"REV_AT_EPOCH":9627,"BSTAR":-4.6195e-6,"MEAN_MOTION_DOT":-3.89e-6,"MEAN_MOTION_DDOT":0},{"OBJECT_NAME":"STARLINK-31425","OBJECT_ID":"2024-049Y","EPOCH":"2025-11-22T05:30:48.521664","MEAN_MOTION":15.27571965,"ECCENTRICITY":0.00020239,"INCLINATION":43.0041,"RA_OF_ASC_NODE":30.2241,"ARG_OF_PERICENTER":281.4793,"MEAN_ANOMALY":78.5832,"EPHEMERIS_TYPE":0,"CLASSIFICATION_TYPE":"U","NORAD_CAT_ID":59253,"ELEMENT_SET_NO":999,"REV_AT_EPOCH":9596,"BSTAR":7.52238e-7,"MEAN_MOTION_DOT":-2.42e-6,"MEAN_MOTION_DDOT":0},{"OBJECT_NAME":"STARLINK-31659","OBJECT_ID":"2024-050A","EPOCH":"2025-11-23T02:59:38.129568","MEAN_MOTION":15.30194622,"ECCENTRICITY":0.0001631,"INCLINATION":53.1604,"RA_OF_ASC_NODE":313.8036,"ARG_OF_PERICENTER":103.7947,"MEAN_ANOMALY":256.3235,"EPHEMERIS_TYPE":0,"CLASSIFICATION_TYPE":"U","NORAD_CAT_ID":59254,"ELEMENT_SET_NO":999,"REV_AT_EPOCH":9541,"BSTAR":4.564e-5,"MEAN_MOTION_DOT":9.92e-6,"MEAN_MOTION_DDOT":0},{"OBJECT_NAME":"STARLINK-31629","OBJECT_ID":"2024-050B","EPOCH":"2025-11-23T03:11:02.218848","MEAN_MOTION":15.30200142,"ECCENTRICITY":0.0001803,"INCLINATION":53.1619,"RA_OF_ASC_NODE":315.9829,"ARG_OF_PERICENTER":114.3193,"MEAN_ANOMALY":245.7996,"EPHEMERIS_TYPE":0,"CLASSIFICATION_TYPE":"U","NORAD_CAT_ID":59255,"ELEMENT_SET_NO":999,"REV_AT_EPOCH":9423,"BSTAR":-2.8654e-5,"MEAN_MOTION_DOT":-1.208e-5,"MEAN_MOTION_DDOT":0},{"OBJECT_NAME":"STARLINK-31652","OBJECT_ID":"2024-050C","EPOCH":"2025-11-23T02:52:47.915328","MEAN_MOTION":15.30193027,"ECCENTRICITY":0.0001278,"INCLINATION":53.1604,"RA_OF_ASC_NODE":315.8999,"ARG_OF_PERICENTER":94.3632,"MEAN_ANOMALY":265.7515,"EPHEMERIS_TYPE":0,"CLASSIFICATION_TYPE":"U","NORAD_CAT_ID":59256,"ELEMENT_SET_NO":999,"REV_AT_EPOCH":9423,"BSTAR":3.912e-5,"MEAN_MOTION_DOT":7.99e-6,"MEAN_MOTION_DDOT":0},{"OBJECT_NAME":"STARLINK-31655","OBJECT_ID":"2024-050D","EPOCH":"2025-11-23T04:00:03.000096","MEAN_MOTION":15.41620325,"ECCENTRICITY":0.0009761,"INCLINATION":53.1545,"RA_OF_ASC_NODE":276.187,"ARG_OF_PERICENTER":119.625,"MEAN_ANOMALY":116.3656,"EPHEMERIS_TYPE":0,"CLASSIFICATION_TYPE":"U","NORAD_CAT_ID":59257,"ELEMENT_SET_NO":999,"REV_AT_EPOCH":591,"BSTAR":0.0036963,"MEAN_MOTION_DOT":0.00161142,"MEAN_MOTION_DDOT":0},{"OBJECT_NAME":"STARLINK-31637","OBJECT_ID":"2024-050E","EPOCH":"2025-11-23T02:43:40.960128","MEAN_MOTION":15.30195081,"ECCENTRICITY":0.0001277,"INCLINATION":53.1619,"RA_OF_ASC_NODE":315.8614,"ARG_OF_PERICENTER":102.9029,"MEAN_ANOMALY":257.2115,"EPHEMERIS_TYPE":0,"CLASSIFICATION_TYPE":"U","NORAD_CAT_ID":59258,"ELEMENT_SET_NO":999,"REV_AT_EPOCH":9423,"BSTAR":-1.5766e-5,"MEAN_MOTION_DOT":-8.26e-6,"MEAN_MOTION_DDOT":0},{"OBJECT_NAME":"STARLINK-31506","OBJECT_ID":"2024-050F","EPOCH":"2025-11-23T03:06:28.380960","MEAN_MOTION":15.30193846,"ECCENTRICITY":0.0001467,"INCLINATION":53.1607,"RA_OF_ASC_NODE":315.9608,"ARG_OF_PERICENTER":113.7639,"MEAN_ANOMALY":246.3516,"EPHEMERIS_TYPE":0,"CLASSIFICATION_TYPE":"U","NORAD_CAT_ID":59259,"ELEMENT_SET_NO":999,"REV_AT_EPOCH":9423,"BSTAR":6.9475e-5,"MEAN_MOTION_DOT":1.698e-5,"MEAN_MOTION_DDOT":0},{"OBJECT_NAME":"STARLINK-31639","OBJECT_ID":"2024-050H","EPOCH":"2025-11-23T02:48:14.396256","MEAN_MOTION":15.30193667,"ECCENTRICITY":0.0001388,"INCLINATION":53.1615,"RA_OF_ASC_NODE":315.8795,"ARG_OF_PERICENTER":113.5919,"MEAN_ANOMALY":246.5228,"EPHEMERIS_TYPE":0,"CLASSIFICATION_TYPE":"U","NORAD_CAT_ID":59261,"ELEMENT_SET_NO":999,"REV_AT_EPOCH":9423,"BSTAR":-5.299e-6,"MEAN_MOTION_DOT":-5.16e-6,"MEAN_MOTION_DDOT":0},{"OBJECT_NAME":"STARLINK-31598","OBJECT_ID":"2024-050K","EPOCH":"2025-11-22T06:01:23.944512","MEAN_MOTION":15.30180661,"ECCENTRICITY":0.00011723,"INCLINATION":53.1622,"RA_OF_ASC_NODE":320.4123,"ARG_OF_PERICENTER":83.1511,"MEAN_ANOMALY":276.9623,"EPHEMERIS_TYPE":0,"CLASSIFICATION_TYPE":"U","NORAD_CAT_ID":59263,"ELEMENT_SET_NO":999,"REV_AT_EPOCH":9409,"BSTAR":8.4446102e-5,"MEAN_MOTION_DOT":2.141e-5,"MEAN_MOTION_DDOT":0},{"OBJECT_NAME":"STARLINK-31645","OBJECT_ID":"2024-050L","EPOCH":"2025-11-22T05:24:55.196640","MEAN_MOTION":15.30197163,"ECCENTRICITY":0.00015716,"INCLINATION":53.1597,"RA_OF_ASC_NODE":320.2739,"ARG_OF_PERICENTER":83.2086,"MEAN_ANOMALY":276.9094,"EPHEMERIS_TYPE":0,"CLASSIFICATION_TYPE":"U","NORAD_CAT_ID":59264,"ELEMENT_SET_NO":999,"REV_AT_EPOCH":9409,"BSTAR":0.00070796854,"MEAN_MOTION_DOT":0.00020665,"MEAN_MOTION_DDOT":0},{"OBJECT_NAME":"STARLINK-31646","OBJECT_ID":"2024-050M","EPOCH":"2025-11-22T08:42:09.250848","MEAN_MOTION":15.3018745,"ECCENTRICITY":0.0001161,"INCLINATION":53.1607,"RA_OF_ASC_NODE":319.7034,"ARG_OF_PERICENTER":113.7555,"MEAN_ANOMALY":246.3567,"EPHEMERIS_TYPE":0,"CLASSIFICATION_TYPE":"U","NORAD_CAT_ID":59265,"ELEMENT_SET_NO":999,"REV_AT_EPOCH":9411,"BSTAR":-2.1020553e-5,"MEAN_MOTION_DOT":-9.81e-6,"MEAN_MOTION_DDOT":0},{"OBJECT_NAME":"STARLINK-31648","OBJECT_ID":"2024-050N","EPOCH":"2025-11-23T02:57:21.501792","MEAN_MOTION":15.30191637,"ECCENTRICITY":0.0001519,"INCLINATION":53.16,"RA_OF_ASC_NODE":315.9186,"ARG_OF_PERICENTER":107.3603,"MEAN_ANOMALY":252.7564,"EPHEMERIS_TYPE":0,"CLASSIFICATION_TYPE":"U","NORAD_CAT_ID":59266,"ELEMENT_SET_NO":999,"REV_AT_EPOCH":9423,"BSTAR":8.493e-5,"MEAN_MOTION_DOT":2.156e-5,"MEAN_MOTION_DDOT":0},{"OBJECT_NAME":"STARLINK-31579","OBJECT_ID":"2024-050P","EPOCH":"2025-11-22T05:20:22.049088","MEAN_MOTION":15.30195942,"ECCENTRICITY":0.00016749,"INCLINATION":53.161,"RA_OF_ASC_NODE":320.2533,"ARG_OF_PERICENTER":77.1759,"MEAN_ANOMALY":282.9429,"EPHEMERIS_TYPE":0,"CLASSIFICATION_TYPE":"U","NORAD_CAT_ID":59267,"ELEMENT_SET_NO":999,"REV_AT_EPOCH":9409,"BSTAR":3.9235473e-5,"MEAN_MOTION_DOT":8.03e-6,"MEAN_MOTION_DDOT":0}]
